{"fetched_at":"2026-07-05T16:24:32.959Z","source":"https://celestrak.org/NORAD/elements/gp.php?NAME=JILIN&FORMAT=JSON","constellation":"jilin-1-gaofen","records":[{"OBJECT_NAME":"JILIN-1 GAOFEN 03D51","OBJECT_ID":"2022-155B","EPOCH":"2026-07-05T08:14:51.448992","CLASSIFICATION_TYPE":"U","MEAN_MOTION":15.64025869,"ECCENTRICITY":0.00038411,"INCLINATION":97.6252,"RA_OF_ASC_NODE":332.5722,"ARG_OF_PERICENTER":269.0721,"MEAN_ANOMALY":91.0097,"EPHEMERIS_TYPE":0,"NORAD_CAT_ID":54252,"ELEMENT_SET_NO":999,"REV_AT_EPOCH":20258,"BSTAR":0.000622335,"MEAN_MOTION_DOT":0.00058938,"MEAN_MOTION_DDOT":0},{"OBJECT_NAME":"JILIN-1 GAOFEN 03D53","OBJECT_ID":"2022-155C","EPOCH":"2026-07-05T07:42:46.953792","CLASSIFICATION_TYPE":"U","MEAN_MOTION":15.53929517,"ECCENTRICITY":0.00045031,"INCLINATION":97.6242,"RA_OF_ASC_NODE":327.9138,"ARG_OF_PERICENTER":294.5425,"MEAN_ANOMALY":65.5358,"EPHEMERIS_TYPE":0,"NORAD_CAT_ID":54253,"ELEMENT_SET_NO":999,"REV_AT_EPOCH":20230,"BSTAR":0.00059568664,"MEAN_MOTION_DOT":0.00038449,"MEAN_MOTION_DDOT":0},{"OBJECT_NAME":"JILIN-1 GAOFEN 03D54","OBJECT_ID":"2022-155D","EPOCH":"2026-07-04T04:56:11.510592","CLASSIFICATION_TYPE":"U","MEAN_MOTION":16.24574902,"ECCENTRICITY":0.0012818,"INCLINATION":97.6175,"RA_OF_ASC_NODE":340.8749,"ARG_OF_PERICENTER":269.0365,"MEAN_ANOMALY":90.9457,"EPHEMERIS_TYPE":0,"NORAD_CAT_ID":54254,"ELEMENT_SET_NO":999,"REV_AT_EPOCH":20303,"BSTAR":0.00096265,"MEAN_MOTION_DOT":0.02649382,"MEAN_MOTION_DDOT":0.0000025932},{"OBJECT_NAME":"JILIN-1 GAOFEN 03D52","OBJECT_ID":"2022-155E","EPOCH":"2026-07-05T07:32:50.034336","CLASSIFICATION_TYPE":"U","MEAN_MOTION":15.61311093,"ECCENTRICITY":0.0003265,"INCLINATION":97.6225,"RA_OF_ASC_NODE":330.7992,"ARG_OF_PERICENTER":289.4174,"MEAN_ANOMALY":70.673,"EPHEMERIS_TYPE":0,"NORAD_CAT_ID":54255,"ELEMENT_SET_NO":999,"REV_AT_EPOCH":20253,"BSTAR":0.00063907544,"MEAN_MOTION_DOT":0.00054436,"MEAN_MOTION_DDOT":0},{"OBJECT_NAME":"JILIN-1 GAOFEN 03D50","OBJECT_ID":"2022-167J","EPOCH":"2026-07-05T07:40:30.763200","CLASSIFICATION_TYPE":"U","MEAN_MOTION":15.34908415,"ECCENTRICITY":0.00060193,"INCLINATION":97.6851,"RA_OF_ASC_NODE":354.9091,"ARG_OF_PERICENTER":52.7365,"MEAN_ANOMALY":307.4425,"EPHEMERIS_TYPE":0,"NORAD_CAT_ID":54690,"ELEMENT_SET_NO":999,"REV_AT_EPOCH":19813,"BSTAR":0.00042196091,"MEAN_MOTION_DOT":0.00014218,"MEAN_MOTION_DDOT":0},{"OBJECT_NAME":"JILIN-1 GAOFEN 03D47","OBJECT_ID":"2022-167L","EPOCH":"2026-07-05T07:39:30.413664","CLASSIFICATION_TYPE":"U","MEAN_MOTION":15.34197563,"ECCENTRICITY":0.00085029,"INCLINATION":97.6949,"RA_OF_ASC_NODE":356.6444,"ARG_OF_PERICENTER":60.6918,"MEAN_ANOMALY":299.5173,"EPHEMERIS_TYPE":0,"NORAD_CAT_ID":54692,"ELEMENT_SET_NO":999,"REV_AT_EPOCH":19812,"BSTAR":0.00042170915,"MEAN_MOTION_DOT":0.000139,"MEAN_MOTION_DDOT":0},{"OBJECT_NAME":"JILIN-1 GAOFEN 03D49","OBJECT_ID":"2022-167N","EPOCH":"2026-07-05T07:02:21.413760","CLASSIFICATION_TYPE":"U","MEAN_MOTION":15.37865231,"ECCENTRICITY":0.00065949,"INCLINATION":97.6826,"RA_OF_ASC_NODE":357.2334,"ARG_OF_PERICENTER":78.2749,"MEAN_ANOMALY":281.9235,"EPHEMERIS_TYPE":0,"NORAD_CAT_ID":54694,"ELEMENT_SET_NO":999,"REV_AT_EPOCH":19827,"BSTAR":0.00042704374,"MEAN_MOTION_DOT":0.00015831,"MEAN_MOTION_DDOT":0},{"OBJECT_NAME":"JILIN-1 GAOFEN 03D48","OBJECT_ID":"2022-167P","EPOCH":"2026-07-05T07:36:31.110336","CLASSIFICATION_TYPE":"U","MEAN_MOTION":15.35635373,"ECCENTRICITY":0.00071765,"INCLINATION":97.6898,"RA_OF_ASC_NODE":356.6094,"ARG_OF_PERICENTER":60.9554,"MEAN_ANOMALY":299.2407,"EPHEMERIS_TYPE":0,"NORAD_CAT_ID":54695,"ELEMENT_SET_NO":999,"REV_AT_EPOCH":19817,"BSTAR":0.0004296354,"MEAN_MOTION_DOT":0.00014823,"MEAN_MOTION_DDOT":0},{"OBJECT_NAME":"JILIN GAOFEN OBJECT A","OBJECT_ID":"2026-080A","EPOCH":"2026-07-04T01:28:04.639584","CLASSIFICATION_TYPE":"U","MEAN_MOTION":15.09112385,"ECCENTRICITY":0.00122821,"INCLINATION":97.6614,"RA_OF_ASC_NODE":260.5556,"ARG_OF_PERICENTER":15.1953,"MEAN_ANOMALY":344.9642,"EPHEMERIS_TYPE":0,"NORAD_CAT_ID":68691,"ELEMENT_SET_NO":999,"REV_AT_EPOCH":1220,"BSTAR":0.00039809366,"MEAN_MOTION_DOT":0.0000626,"MEAN_MOTION_DDOT":0},{"OBJECT_NAME":"JILIN GAOFEN OBJECT B","OBJECT_ID":"2026-080B","EPOCH":"2026-07-04T21:42:28.606464","CLASSIFICATION_TYPE":"U","MEAN_MOTION":15.09033071,"ECCENTRICITY":0.00156881,"INCLINATION":97.6582,"RA_OF_ASC_NODE":261.416,"ARG_OF_PERICENTER":349.8167,"MEAN_ANOMALY":10.2742,"EPHEMERIS_TYPE":0,"NORAD_CAT_ID":68692,"ELEMENT_SET_NO":999,"REV_AT_EPOCH":1233,"BSTAR":0.00058617653,"MEAN_MOTION_DOT":0.00009242,"MEAN_MOTION_DDOT":0},{"OBJECT_NAME":"JILIN GAOFEN OBJECT C","OBJECT_ID":"2026-080C","EPOCH":"2026-07-04T14:09:54.009216","CLASSIFICATION_TYPE":"U","MEAN_MOTION":15.0910882,"ECCENTRICITY":0.00128414,"INCLINATION":97.6596,"RA_OF_ASC_NODE":261.0703,"ARG_OF_PERICENTER":354.1079,"MEAN_ANOMALY":5.9996,"EPHEMERIS_TYPE":0,"NORAD_CAT_ID":68693,"ELEMENT_SET_NO":999,"REV_AT_EPOCH":1228,"BSTAR":0.00054045966,"MEAN_MOTION_DOT":0.00008525,"MEAN_MOTION_DDOT":0},{"OBJECT_NAME":"JILIN GAOFEN OBJECT D","OBJECT_ID":"2026-080D","EPOCH":"2026-07-05T07:15:15.550848","CLASSIFICATION_TYPE":"U","MEAN_MOTION":15.08894691,"ECCENTRICITY":0.00173473,"INCLINATION":97.6647,"RA_OF_ASC_NODE":261.8806,"ARG_OF_PERICENTER":0.1192,"MEAN_ANOMALY":0.0037,"EPHEMERIS_TYPE":0,"NORAD_CAT_ID":68694,"ELEMENT_SET_NO":999,"REV_AT_EPOCH":1237,"BSTAR":0.00050886329,"MEAN_MOTION_DOT":0.00007987,"MEAN_MOTION_DDOT":0},{"OBJECT_NAME":"JILIN GAOFEN OBJECT E","OBJECT_ID":"2026-080E","EPOCH":"2026-07-05T06:51:35.838144","CLASSIFICATION_TYPE":"U","MEAN_MOTION":15.09190254,"ECCENTRICITY":0.00133785,"INCLINATION":97.6634,"RA_OF_ASC_NODE":261.8828,"ARG_OF_PERICENTER":11.9812,"MEAN_ANOMALY":348.1733,"EPHEMERIS_TYPE":0,"NORAD_CAT_ID":68695,"ELEMENT_SET_NO":999,"REV_AT_EPOCH":1235,"BSTAR":0.00052485131,"MEAN_MOTION_DOT":0.00008296,"MEAN_MOTION_DDOT":0},{"OBJECT_NAME":"JILIN GAOFEN OBJECT F","OBJECT_ID":"2026-080F","EPOCH":"2026-07-05T06:49:50.944224","CLASSIFICATION_TYPE":"U","MEAN_MOTION":15.09154592,"ECCENTRICITY":0.00144861,"INCLINATION":97.6605,"RA_OF_ASC_NODE":261.8543,"ARG_OF_PERICENTER":17.5776,"MEAN_ANOMALY":342.5951,"EPHEMERIS_TYPE":0,"NORAD_CAT_ID":68696,"ELEMENT_SET_NO":999,"REV_AT_EPOCH":1235,"BSTAR":0.00052647874,"MEAN_MOTION_DOT":0.00008317,"MEAN_MOTION_DDOT":0},{"OBJECT_NAME":"JILIN GAOFEN OBJECT G","OBJECT_ID":"2026-080G","EPOCH":"2026-07-05T08:05:10.930848","CLASSIFICATION_TYPE":"U","MEAN_MOTION":15.09140755,"ECCENTRICITY":0.00143821,"INCLINATION":97.6652,"RA_OF_ASC_NODE":261.9853,"ARG_OF_PERICENTER":11.6218,"MEAN_ANOMALY":348.5339,"EPHEMERIS_TYPE":0,"NORAD_CAT_ID":68697,"ELEMENT_SET_NO":999,"REV_AT_EPOCH":1236,"BSTAR":0.00049400648,"MEAN_MOTION_DOT":0.00007796,"MEAN_MOTION_DDOT":0},{"OBJECT_NAME":"JILIN GAOFEN OBJECT H","OBJECT_ID":"2026-080H","EPOCH":"2026-07-01T19:40:54.106752","CLASSIFICATION_TYPE":"U","MEAN_MOTION":15.09020248,"ECCENTRICITY":0.00154058,"INCLINATION":97.6647,"RA_OF_ASC_NODE":258.4665,"ARG_OF_PERICENTER":23.9908,"MEAN_ANOMALY":336.2035,"EPHEMERIS_TYPE":0,"NORAD_CAT_ID":68698,"ELEMENT_SET_NO":999,"REV_AT_EPOCH":1183,"BSTAR":0.00048995825,"MEAN_MOTION_DOT":0.00007709,"MEAN_MOTION_DDOT":0}]}
